ASTRA 1M                
1 33436U 08057A   26192.35489970  .00000127  00000+0  00000+0 0  9992
2 33436   0.3558  82.7320 0004777  42.0845 311.6331  1.00274407 45970
EUTELSAT HOTBIRD 13C    
1 33459U 08065A   26192.48368639 -.00000280  00000+0  00000+0 0  9999
2 33459   3.0100  78.9032 0003331  33.8853 300.4196  1.00272083 47589
EXPRESS-AM44            
1 33595U 09007A   26192.42017771 -.00000087  00000+0  00000+0 0  9994
2 33595   3.5219  78.1025 0003761  26.0514 325.4184  1.00271229 52520
NSS-9                   
1 33749U 09008A   26192.51989154  .00000076  00000+0  00000+0 0  9996
2 33749   1.3218  82.4180 0001859  18.5955 198.6327  1.00270662 63764
TELSTAR 11N             
1 34111U 09009A   26192.48619972 -.00000245  00000+0  00000+0 0  9994
2 34111   0.0435 263.9551 0002294 202.1709 320.7446  1.00270054 46480
WGS F2 (USA 204)        
1 34713U 09017A   26192.50500647  .00000074  00000+0  00000+0 0  9991
2 34713   0.0175  26.4281 0000472 201.6145 300.6631  1.00270809 45867
SES-7 (PROTOSTAR 2)     
1 34941U 09027A   26192.47406122 -.00000339  00000+0  00000+0 0  9999
2 34941   0.0218  57.4882 0000460 180.6953 330.1059  1.00270044 62872
MEASAT-3A               
1 35362U 09032A   26192.53425500 -.00000105  00000+0  00000+0 0  9992
2 35362   0.0415 307.5707 0002604 152.2032 181.9911  1.00270002  8276
GOES 14                 
1 35491U 09033A   26192.54793347 -.00000351  00000+0  00000+0 0  9997
2 35491   1.7498  82.7408 0001884  39.7705 131.5347  1.00099941  6838
FM-5                    
1 35493U 09034A   26192.47657968 -.00000194  00000+0  00000+0 0  9995
2 35493   0.0383 274.0975 0000745  61.3460  39.3440  1.00269347 46881
TERRESTAR-1             
1 35496U 09035A   26192.46364013 -.00000055  00000+0  00000+0 0  9990
2 35496   5.1950  48.7781 0002605  55.5083 240.9981  1.00273061 62374
ASIASAT 5               
1 35696U 09042A   26192.51358598 -.00000302  00000+0  00000+0 0  9992
2 35696   0.0126 291.0989 0001701 148.8742 134.8229  1.00274403 61952
JCSAT-12 (JCSAT-RA)     
1 35755U 09044A   26192.51982601 -.00000322  00000+0  00000+0 0  9990
2 35755   0.0396 281.9213 0000586 294.4715  32.2240  1.00270767 61855
OPTUS D3                
1 35756U 09044B   26192.20183432 -.00000137  00000+0  00000+0 0  9996
2 35756   0.8915 268.3378 0003110 204.6913  44.8812  1.00271566 61808
NIMIQ 5                 
1 35873U 09050A   26192.47926637 -.00000251  00000+0  00000+0 0  9991
2 35873   0.0520 258.7900 0002537 206.7499 283.6776  1.00271942 61585
AMAZONAS 2              
1 35942U 09054A   26192.47935302 -.00000255  00000+0  00000+0 0  9995
2 35942   1.8756  82.7377 0003135  29.8417 277.3833  1.00271110 61428
COMSATBW-1              
1 35943U 09054B   26192.53195242  .00000031  00000+0  00000+0 0  9995
2 35943   0.0617 187.2228 0002632 284.0705  72.6893  1.00268922 61551
NSS-12                  
1 36032U 09058A   26192.50491980  .00000078  00000+0  00000+0 0  9995
2 36032   0.0444 286.0876 0004407 150.1082  91.9775  1.00268059 61160
THOR 6                  
1 36033U 09058B   26192.36225226 -.00000004  00000+0  00000+0 0  9998
2 36033   0.0164 278.1948 0001570 184.4686 316.1762  1.00269863 61241
INTELSAT 14 (IS-14)     
1 36097U 09064A   26192.41341766 -.00000267  00000+0  00000+0 0  9990
2 36097   0.0172  28.4233 0002234  87.2651 277.4757  1.00271333 60846
EUTELSAT 36B            
1 36101U 09065A   26192.50361980  .00000117  00000+0  00000+0 0  9990
2 36101   0.5497  81.2966 0005724  30.7734  49.1243  1.00272249 60952
INTELSAT 15 (IS-15)     
1 36106U 09067A   26192.54512382 -.00000179  00000+0  00000+0 0  9994
2 36106   0.0135  56.6625 0002105  61.9965  92.1894  1.00271276 41476
WGS F3 (USA 211)        
1 36108U 09068A   26192.46919784  .00000069  00000+0  00000+0 0  9992
2 36108   0.3006  85.6338 0000660  84.5027 158.1713  1.00273174 46832
DIRECTV 12              
1 36131U 09075A   26192.47328632 -.00000098  00000+0  00000+0 0  9996
2 36131   0.0193 152.8520 0000326  60.7229 143.4564  1.00272197 46791
BEIDOU-2 G1             
1 36287U 10001A   26192.53509929 -.00000278  00000+0  00000+0 0  9996
2 36287   4.3471  60.3185 0001939 292.2577 269.9462  1.00273484 60414
SDO                     
1 36395U 10005A   26192.24778595 -.00000102  00000+0  00000+0 0  9991
2 36395  34.6998  85.9778 0002020  56.2745 133.8056  1.00277272 60307
INTELSAT 16 (IS-16)     
1 36397U 10006A   26192.47857301 -.00000239  00000+0  00000+0 0  9993
2 36397   0.0116  28.8758 0002276 106.3867 250.2077  1.00271078 59894
EWS-G2 (GOES 15)        
1 36411U 10008A   26192.50621983  .00000026  00000+0  00000+0 0  9994
2 36411   1.3416  82.5091 0005213  53.6091  38.8909  1.00268134 59884
ECHOSTAR 14             
1 36499U 10010A   26192.47007963  .00000006  00000+0  00000+0 0  9993
2 36499   0.0468 260.2173 0001927 191.0318 248.4425  1.00270514 46799
SES-1                   
1 36516U 10016A   26192.20121895 -.00000107  00000+0  00000+0 0  9994
2 36516   0.0449 283.9782 0002451 182.6005 153.9573  1.00270296 59276
ASTRA 3B                
1 36581U 10021A   26192.35550637  .00000142  00000+0  00000+0 0  9996
2 36581   1.5304  83.2632 0004271  22.6917 334.8198  1.00275240 59105
COMSATBW-2              
1 36582U 10021B   26192.28237485  .00000095  00000+0  00000+0 0  9999
2 36582   0.0467 126.9889 0002371   3.0009 274.0677  1.00272512 59198
