OBJECT_NAME,OBJECT_ID,EPOCH,MEAN_MOTION,ECCENTRICITY,INCLINATION,RA_OF_ASC_NODE,ARG_OF_PERICENTER,MEAN_ANOMALY,EPHEMERIS_TYPE,CLASSIFICATION_TYPE,NORAD_CAT_ID,ELEMENT_SET_NO,REV_AT_EPOCH,BSTAR,MEAN_MOTION_DOT,MEAN_MOTION_DDOT
ASTRA 1M,2008-057A,2026-07-11T08:31:03.334080,1.00274407,.0004777,0.3558,82.7320,42.0845,311.6331,0,U,33436,999,4597,0,.127E-5,0
EUTELSAT HOTBIRD 13C,2008-065A,2026-07-11T11:36:30.504096,1.00272083,.0003331,3.0100,78.9032,33.8853,300.4196,0,U,33459,999,4758,0,-.28E-5,0
EXPRESS-AM44,2009-007A,2026-07-11T10:05:03.354144,1.00271229,.0003761,3.5219,78.1025,26.0514,325.4184,0,U,33595,999,5252,0,-.87E-6,0
NSS-9,2009-008A,2026-07-11T12:28:38.629056,1.00270662,.0001859,1.3218,82.4180,18.5955,198.6327,0,U,33749,999,6376,0,.76E-6,0
TELSTAR 11N,2009-009A,2026-07-11T11:40:07.655808,1.00270054,.0002294,0.0435,263.9551,202.1709,320.7446,0,U,34111,999,4648,0,-.245E-5,0
WGS F2 (USA 204),2009-017A,2026-07-11T12:07:12.559008,1.00270809,.0000472,0.0175,26.4281,201.6145,300.6631,0,U,34713,999,4586,0,.74E-6,0
SES-7 (PROTOSTAR 2),2009-027A,2026-07-11T11:22:38.889408,1.00270044,.000046,0.0218,57.4882,180.6953,330.1059,0,U,34941,999,6287,0,-.339E-5,0
MEASAT-3A,2009-032A,2026-07-11T12:49:19.632000,1.00270002,.0002604,0.0415,307.5707,152.2032,181.9911,0,U,35362,999,827,0,-.105E-5,0
GOES 14,2009-033A,2026-07-11T13:09:01.451808,1.00099941,.0001884,1.7498,82.7408,39.7705,131.5347,0,U,35491,999,683,0,-.351E-5,0
FM-5,2009-034A,2026-07-11T11:26:16.484352,1.00269347,.0000745,0.0383,274.0975,61.3460,39.3440,0,U,35493,999,4688,0,-.194E-5,0
TERRESTAR-1,2009-035A,2026-07-11T11:07:38.507232,1.00273061,.0002605,5.1950,48.7781,55.5083,240.9981,0,U,35496,999,6237,0,-.55E-6,0
ASIASAT 5,2009-042A,2026-07-11T12:19:33.828672,1.00274403,.0001701,0.0126,291.0989,148.8742,134.8229,0,U,35696,999,6195,0,-.302E-5,0
JCSAT-12 (JCSAT-RA),2009-044A,2026-07-11T12:28:32.967264,1.00270767,.0000586,0.0396,281.9213,294.4715,32.2240,0,U,35755,999,6185,0,-.322E-5,0
OPTUS D3,2009-044B,2026-07-11T04:50:38.485248,1.00271566,.000311,0.8915,268.3378,204.6913,44.8812,0,U,35756,999,6180,0,-.137E-5,0
NIMIQ 5,2009-050A,2026-07-11T11:30:08.614368,1.00271942,.0002537,0.0520,258.7900,206.7499,283.6776,0,U,35873,999,6158,0,-.251E-5,0
AMAZONAS 2,2009-054A,2026-07-11T11:30:16.100928,1.00271110,.0003135,1.8756,82.7377,29.8417,277.3833,0,U,35942,999,6142,0,-.255E-5,0
COMSATBW-1,2009-054B,2026-07-11T12:46:00.689088,1.00268922,.0002632,0.0617,187.2228,284.0705,72.6893,0,U,35943,999,6155,0,.31E-6,0
NSS-12,2009-058A,2026-07-11T12:07:05.070720,1.00268059,.0004407,0.0444,286.0876,150.1082,91.9775,0,U,36032,999,6116,0,.78E-6,0
THOR 6,2009-058B,2026-07-11T08:41:38.595264,1.00269863,.000157,0.0164,278.1948,184.4686,316.1762,0,U,36033,999,6124,0,-.4E-7,0
INTELSAT 14 (IS-14),2009-064A,2026-07-11T09:55:19.285824,1.00271333,.0002234,0.0172,28.4233,87.2651,277.4757,0,U,36097,999,6084,0,-.267E-5,0
EUTELSAT 36B,2009-065A,2026-07-11T12:05:12.750720,1.00272249,.0005724,0.5497,81.2966,30.7734,49.1243,0,U,36101,999,6095,0,.117E-5,0
INTELSAT 15 (IS-15),2009-067A,2026-07-11T13:04:58.698048,1.00271276,.0002105,0.0135,56.6625,61.9965,92.1894,0,U,36106,999,4147,0,-.179E-5,0
WGS F3 (USA 211),2009-068A,2026-07-11T11:15:38.693376,1.00273174,.000066,0.3006,85.6338,84.5027,158.1713,0,U,36108,999,4683,0,.69E-6,0
DIRECTV 12,2009-075A,2026-07-11T11:21:31.938048,1.00272197,.0000326,0.0193,152.8520,60.7229,143.4564,0,U,36131,999,4679,0,-.98E-6,0
BEIDOU-2 G1,2010-001A,2026-07-11T12:50:32.578656,1.00273484,.0001939,4.3471,60.3185,292.2577,269.9462,0,U,36287,999,6041,0,-.278E-5,0
SDO,2010-005A,2026-07-11T05:56:48.706080,1.00277272,.000202,34.6998,85.9778,56.2745,133.8056,0,U,36395,999,6030,0,-.102E-5,0
INTELSAT 16 (IS-16),2010-006A,2026-07-11T11:29:08.708064,1.00271078,.0002276,0.0116,28.8758,106.3867,250.2077,0,U,36397,999,5989,0,-.239E-5,0
EWS-G2 (GOES 15),2010-008A,2026-07-11T12:08:57.393312,1.00268134,.0005213,1.3416,82.5091,53.6091,38.8909,0,U,36411,999,5988,0,.26E-6,0
ECHOSTAR 14,2010-010A,2026-07-11T11:16:54.880032,1.00270514,.0001927,0.0468,260.2173,191.0318,248.4425,0,U,36499,999,4679,0,.6E-7,0
SES-1,2010-016A,2026-07-11T04:49:45.317280,1.00270296,.0002451,0.0449,283.9782,182.6005,153.9573,0,U,36516,999,5927,0,-.107E-5,0
ASTRA 3B,2010-021A,2026-07-11T08:31:55.750368,1.00275240,.0004271,1.5304,83.2632,22.6917,334.8198,0,U,36581,999,5910,0,.142E-5,0
COMSATBW-2,2010-021B,2026-07-11T06:46:37.187040,1.00272512,.0002371,0.0467,126.9889,3.0009,274.0677,0,U,36582,999,5919,0,.95E-6,0
